satname,norad_id,inclination_deg,eccentricity,mean_motion_rev_per_day,perigee_km,apogee_km,l1,l2
STARLINK-1008,44714,53.1582,0.0001386,15.31042288,471.75177612221887,473.65082849962073,1 44714U 19074B   26043.11707083  .00001203  00000+0  51496-4 0  9997,2 44714  53.1582 297.6959 0001386  98.9088 261.2070 15.31042288344950
STARLINK-1012,44718,53.159,0.0001174,15.30204214,474.39790514797915,476.00706925957456,1 44718U 19074F   26043.67128889  .00003088  00000+0  11632-3 0  9993,2 44718  53.1590 295.0097 0001174  88.5780 271.5355 15.30204214345035
STARLINK-1017,44723,53.0478,0.0003359,15.21955706,497.63175046098513,502.2524439985036,1 44723U 19074L   26043.07977991  .00042878  00000+0  18598-2 0  9996,2 44723  53.0478 289.3958 0003359 104.1590 255.9779 15.21955706345066
STARLINK-1019,44724,53.0458,0.0009598,15.73879415,341.3662527284778,354.2774032947291,1 44724U 19074M   26043.91670139  .00107578  00000+0  73737-3 0  9990,2 44724  53.0458 260.6331 0009598 112.5558 284.3755 15.73879415  5950
STARLINK-1020,44725,53.0654,0.0001807,15.09821325,535.4959765159856,537.9950150499626,1 44725U 19074N   26043.91670139  .00013962  00000+0  86995-3 0  9994,2 44725  53.0654 317.8080 0001807 118.6438 141.7702 15.09821325  5778
STARLINK-1031,44736,53.0427,0.0004672,15.80107457,327.00237667988677,333.2705874215135,1 44736U 19074Z   26043.91670139  .00187925  00000+0  96787-3 0  9997,2 44736  53.0427 245.3717 0004672 147.2865 151.8746 15.80107457  6037
STARLINK-1036,44741,53.0557,0.000533,15.50655354,411.1908159501627,418.43209900583315,1 44741U 19074AE  26043.25890478  .00136131  00000+0  23002-2 0  9992,2 44741  53.0557 311.1562 0005330 102.2875 257.8730 15.50655354344778
STARLINK-1039,44744,53.0492,0.0007094,15.19407503,502.7453511892745,512.5148775711577,1 44744U 19074AH  26043.17632810  .00030130  00000+0  14139-2 0  9993,2 44744  53.0492 332.1568 0007094  95.5230 264.6574 15.19407503344471
STARLINK-1042,44747,53.0439,0.0003246,15.48487307,418.94349718849753,423.35759466331183,1 44747U 19074AL  26043.68588824  .00025460  00000+0  47776-3 0  9991,2 44747  53.0439 214.6330 0003246 107.8476 252.2886 15.48487307346192
STARLINK-1043,44748,53.0544,0.0002874,15.52030892,408.8460765906302,412.74835597815036,1 44748U 19074AM  26043.74916099  .00032084  00000+0  52900-3 0  9993,2 44748  53.0544 314.6710 0002874  67.6501 292.4812 15.52030892344776
STARLINK-1046,44751,53.0559,0.0007708,15.41776274,435.6107657468483,446.12294208804724,1 44751U 19074AQ  26043.08273386  .00020784  00000+0  49158-3 0  9994,2 44751  53.0559 332.3400 0007708  95.9437 264.2446 15.41776274344467
STARLINK-1047,44752,53.0691,0.0004716,15.31978387,466.6807246438693,473.1398028230233,1 44752U 19074AR  26043.77554810  .00008095  00000+0  27001-3 0  9999,2 44752  53.0691 262.3389 0004716 127.2373 232.9058 15.31978387345524
STARLINK-1048,44753,53.055,0.0005459,15.50112405,412.6884465820385,420.10671943977013,1 44753U 19074AS  26043.65245214  .00024091  00000+0  42746-3 0  9999,2 44753  53.0550 289.2006 0005459 110.3845 249.7750 15.50112405345117
STARLINK-1053,44758,53.0316,0.0001617,15.81221411,325.9012878739959,328.0697244924959,1 44758U 19074AX  26043.91670139  .00205096  00000+0  10018-2 0  9993,2 44758  53.0316 208.9015 0001617 295.1648  88.3754 15.81221411  5975
STARLINK-1060,44765,53.0276,0.0007132,16.26770847,196.53974274327356,205.9245548971512,1 44765U 19074BE  26043.98259990  .03243564  11998-4  92657-3 0  9994,2 44765  53.0276 244.6798 0007132 276.3320 234.4443 16.26770847345753
STARLINK-1063,44768,53.1611,9.49e-05,15.28949173,478.3016215155103,479.60309707590386,1 44768U 19074BH  26043.80200748 -.00661111  00000+0 -24989-1 0  9994,2 44768  53.1611 334.9946 0000949 137.9030 222.2043 15.28949173344501
STARLINK-1067,44771,53.0543,0.0001365,15.52244193,409.2486650051769,411.1018742547849,1 44771U 19074BL  26043.75210200  .00031357  00000+0  51334-3 0  9993,2 44771  53.0543 324.6711 0001365 133.8470 226.2652 15.52244193344631
STARLINK-1068,44772,53.0526,0.0005833,15.57893075,389.8057894848789,397.7058796656929,1 44772U 19074BM  26043.77455015  .00117993  00000+0  15354-2 0  9993,2 44772  53.0526 301.3541 0005833 121.9175 238.2405 15.57893075344958
STARLINK-1112,44925,53.04,0.0003152,15.90252287,299.4708480115851,303.6817392718958,1 44925U 20001M   26043.91670139  .00373977  63176-4  12143-2 0  9994,2 44925  53.0400   8.8610 0003152  79.4218 191.8693 15.90252287  6041
STARLINK-1114,44927,53.0516,0.0007621,15.45913959,423.50642183489344,433.8813935043627,1 44927U 20001P   26043.62813337  .00030609  00000+0  62498-3 0  9996,2 44927  53.0516  89.2510 0007621  20.6570 339.4742 15.45913959336217
STARLINK-1123,44930,53.0544,0.0002927,15.06378253,545.2511411309697,549.3052791949985,1 44930U 20001S   26043.37885990 -.00011516  00000+0 -75579-3 0  9998,2 44930  53.0544 100.2427 0002927 143.9984 216.1203 15.06378253336037
STARLINK-1144,44933,53.0248,0.0003354,16.28058665,195.55655044782998,199.96766356881108,1 44933U 20001V   26043.96149081  .03247942  12020-4  83135-3 0  9992,2 44933  53.0248 336.3024 0003354 193.4053 166.6899 16.28058665339117
STARLINK-1094,44941,53.1609,0.0001321,15.30186943,474.3487225865665,476.15938850344173,1 44941U 20001AD  26043.40666152 -.00000226  00000+0  45142-5 0  9991,2 44941  53.1609  76.9999 0001321  94.6578 265.4574 15.30186943336367
STARLINK-1122,44949,53.1593,0.0001527,15.29976597,474.83558294304385,476.92880040418004,1 44949U 20001AM  26043.56367078  .00110036  00000+0  36980-2 0  9998,2 44949  53.1593  76.3169 0001527  72.6240 287.4928 15.29976597336389
STARLINK-1080,44961,53.0537,0.0007943,15.43387024,430.7090443729103,441.5341756007356,1 44961U 20001AZ  26043.38789422  .00020893  00000+0  46823-3 0  9992,2 44961  53.0537  48.6868 0007943  26.8420 333.2995 15.43387024336760
STARLINK-1090,44968,53.055,0.0001422,15.06396784,546.2366285660773,548.2062004991694,1 44968U 20001BG  26043.48206199  .00002322  00000+0  17473-3 0  9991,2 44968  53.0550  59.7806 0001422  92.6849 267.4303 15.06396784336616
STARLINK-1132,45044,53.1593,0.0005524,15.40201334,441.7452128640298,449.28398314950755,1 45044U 20006A   26043.37959434  .00071851  00000+0  17548-2 0  9992,2 45044  53.1593  13.6454 0005524  92.7273 267.4364 15.40201334333020
STARLINK-1131,45047,53.1569,0.000144,15.29347917,476.7731676118274,478.7476660678776,1 45047U 20006D   26043.38719150  .00008328  00000+0  30068-3 0  9997,2 45047  53.1569  38.4892 0001440 100.7874 259.3289 15.29347917332678
STARLINK-1134,45048,53.0355,0.0009641,15.41133595,436.18645361340987,449.338511996154,1 45048U 20006E   26043.91670139  .00090721  00000+0  21383-2 0  9997,2 45048  53.0355 355.8642 0009641  94.7945 147.6606 15.41133595  5771
STARLINK-1156,45054,53.1558,0.0001592,15.29361017,476.6298139167029,478.81271918877337,1 45054U 20006L   26043.47569541  .00002233  00000+0  89689-4 0  9995,2 45054  53.1558  38.0585 0001592  97.7290 262.3892 15.29361017332686
STARLINK-1159,45057,53.0492,0.0006009,15.74285251,342.6249181604444,350.70678622821197,1 45057U 20006P   26043.91670139  .00230078  00000+0  15251-2 0  9995,2 45057  53.0492 358.7598 0006009  59.3637 203.6441 15.74285251  6016
STARLINK-1166,45060,53.0543,0.0005891,15.42399391,435.01418842362364,443.04617479699664,1 45060U 20006S   26043.52205317  .00063377  00000+0  14414-2 0  9994,2 45060  53.0543  32.3081 0005891  56.3130 303.8436 15.42399391332770
STARLINK-1169,45061,53.1561,0.0001386,15.29331138,476.86032856584825,478.76079723028397,1 45061U 20006T   26043.91670139  .00063705  00000+0  22028-2 0  9991,2 45061  53.1561  36.0469 0001386  88.5927 342.6250 15.29331138  5771
STARLINK-1171,45062,53.0494,0.0002625,15.52510685,407.6166998322178,411.18015593185646,1 45062U 20006U   26043.32845992  .00086574  00000+0  13809-2 0  9994,2 45062  53.0494  12.1350 0002625 304.8782  55.1980 15.52510685333042
STARLINK-1133,45064,53.1597,0.0001067,15.301934,474.50352113200825,475.9660306689848,1 45064U 20006W   26043.32331029 -.00002163  00000+0 -60943-4 0  9994,2 45064  53.1597  15.6273 0001067  67.2621 292.8492 15.30193400332991
STARLINK-1167,45071,53.159,0.0001255,15.29357555,476.8712014221346,478.59202444398034,1 45071U 20006AD  26043.33735828  .00012022  00000+0  42825-3 0  9999,2 45071  53.1590  15.4615 0001255  92.1598 267.9546 15.29357555332993
STARLINK-1168,45072,53.161,0.0002368,15.29204981,476.56404995175944,479.8112052954011,1 45072U 20006AE  26043.34718990  .00050335  00000+0  17529-2 0  9993,2 45072  53.1610  15.4770 0002368  87.0934 273.0337 15.29204981332992
STARLINK-1172,45074,53.1616,0.000214,15.30194712,473.76423775790954,476.69747920133887,1 45074U 20006AG  26043.43077357  .00003338  00000+0  12480-3 0  9993,2 45074  53.1616  15.1468 0002140  85.2084 274.9161 15.30194712333005
STARLINK-1153,45080,53.1635,0.0001671,15.29355842,476.5911158429735,478.88234884432313,1 45080U 20006AN  26043.32177177  .00000831  00000+0  41129-4 0  9997,2 45080  53.1635  15.4472 0001671  86.4447 273.6745 15.29355842332997
STARLINK-1151,45081,53.0528,0.0012723,15.54742437,394.2739213789155,411.5289517846404,1 45081U 20006AP  26043.91670139  .00124199  00000+0  18098-2 0  9990,2 45081  53.0528   0.2799 0012723  64.4902  79.8150 15.54742437  5906
STARLINK-1185,45087,53.1183,0.0001148,15.21400563,500.8253589009428,502.4049499956045,1 45087U 20006AV  26043.91670139  .00080948  00000+0  35379-2 0  9990,2 45087  53.1183 357.1446 0001148  99.6286 206.4886 15.21400563  5849
STARLINK-1183,45088,53.1117,0.0001828,15.20326381,503.59714066169454,506.1135626654632,1 45088U 20006AW  26043.91670139  .00078353  00000+0  35352-2 0  9999,2 45088  53.1117 357.3511 0001828  69.8786   2.9930 15.20326381  5776
STARLINK-1152,45096,53.0434,0.0007475,15.35163346,455.32352237088617,465.54718804191907,1 45096U 20006BE  26043.10390634  .00040652  00000+0  11779-2 0  9996,2 45096  53.0434 326.8501 0007475 103.5461 256.6374 15.35163346333653
